STARLINK-35297          
1 66010U 25232F   26068.37011642  .00011856  00000+0  41178-3 0  9997
2 66010  53.1589 105.6027 0001244  98.7636 261.3506 15.30198550 23372
2025-313BD              
1 67299U 25313BD  26068.62968741  .00081010  00000+0  27634-2 0  9995
2 67299  97.3970 145.2850 0007287 333.4514  26.6352 15.30002360 10838
