[{"OBJECT_NAME":"STARLINK-35297","OBJECT_ID":"2025-232F","EPOCH":"2026-03-09T08:52:58.058688","MEAN_MOTION":15.3019855,"ECCENTRICITY":0.00012448,"INCLINATION":53.1589,"RA_OF_ASC_NODE":105.6027,"ARG_OF_PERICENTER":98.7636,"MEAN_ANOMALY":261.3506,"EPHEMERIS_TYPE":0,"CLASSIFICATION_TYPE":"U","NORAD_CAT_ID":66010,"ELEMENT_SET_NO":999,"REV_AT_EPOCH":2337,"BSTAR":0.00041178012,"MEAN_MOTION_DOT":0.00011856,"MEAN_MOTION_DDOT":0},{"OBJECT_NAME":"OBJECT BD","OBJECT_ID":"2025-313BD","EPOCH":"2026-03-09T15:06:44.992224","MEAN_MOTION":15.3000236,"ECCENTRICITY":0.00072867,"INCLINATION":97.397,"RA_OF_ASC_NODE":145.285,"ARG_OF_PERICENTER":333.4514,"MEAN_ANOMALY":26.6352,"EPHEMERIS_TYPE":0,"CLASSIFICATION_TYPE":"U","NORAD_CAT_ID":67299,"ELEMENT_SET_NO":999,"REV_AT_EPOCH":1083,"BSTAR":0.0027633805,"MEAN_MOTION_DOT":0.0008101,"MEAN_MOTION_DDOT":0}]
